[{"OBJECT_NAME":"STARLINK-33659","OBJECT_ID":"2025-069N","EPOCH":"2026-03-09T12:20:13.378272","MEAN_MOTION":15.30219919,"ECCENTRICITY":0.00012439,"INCLINATION":53.159,"RA_OF_ASC_NODE":143.5893,"ARG_OF_PERICENTER":47.2398,"MEAN_ANOMALY":312.8707,"EPHEMERIS_TYPE":0,"CLASSIFICATION_TYPE":"U","NORAD_CAT_ID":63445,"ELEMENT_SET_NO":999,"REV_AT_EPOCH":5332,"BSTAR":0.00072406312,"MEAN_MOTION_DOT":0.0002116,"MEAN_MOTION_DDOT":0},{"OBJECT_NAME":"SCS-01 H","OBJECT_ID":"2025-100H","EPOCH":"2026-03-09T23:19:05.376864","MEAN_MOTION":15.31767757,"ECCENTRICITY":0.00071581,"INCLINATION":97.3749,"RA_OF_ASC_NODE":145.8085,"ARG_OF_PERICENTER":277.8492,"MEAN_ANOMALY":82.1937,"EPHEMERIS_TYPE":0,"CLASSIFICATION_TYPE":"U","NORAD_CAT_ID":63989,"ELEMENT_SET_NO":999,"REV_AT_EPOCH":4566,"BSTAR":0.0011436254,"MEAN_MOTION_DOT":0.00035149,"MEAN_MOTION_DDOT":0}]
